$$SOE
2459580.500000000, A.D. 2022-Jan-01 00:00:00.0000, -3.199946727651022E+08, -7.953262087227006E+07, 1.438205295273416E+07,
2459587.500000000, A.D. 2022-Jan-08 00:00:00.0000, -3.183735265309427E+08, -9.176108131604660E+07, 1.259675283183734E+07,
2459594.500000000, A.D. 2022-Jan-15 00:00:00.0000, -3.163284787116814E+08, -1.038673888936440E+08, 1.079467429370327E+07,
2459601.500000000, A.D. 2022-Jan-22 00:00:00.0000, -3.138680857285671E+08, -1.158373406204934E+08, 8.978415830533870E+06,
2459608.500000000, A.D. 2022-Jan-29 00:00:00.0000, -3.110013159308687E+08, -1.276573360182058E+08, 7.150526468875945E+06,
2459615.500000000, A.D. 2022-Feb-05 00:00:00.0000, -3.077375100664772E+08, -1.393143784293654E+08, 5.313502548974186E+06,
2459622.500000000, A.D. 2022-Feb-12 00:00:00.0000, -3.040863412964650E+08, -1.507960748507378E+08, 3.469784700159185E+06,
2459629.500000000, A.D. 2022-Feb-19 00:00:00.0000, -3.000577761821751E+08, -1.620906321713189E+08, 1.621755300519437E+06,
2459636.500000000, A.D. 2022-Feb-26 00:00:00.0000, -2.956620380277520E+08, -1.731868507869155E+08, -2.282635463825762E+05,
2459643.500000000, A.D. 2022-Mar-05 00:00:00.0000, -2.909095724670683E+08, -1.840741164503309E+08, -2.078011612385474E+06,
2459650.500000000, A.D. 2022-Mar-12 00:00:00.0000, -2.858110151021575E+08, -1.947423906522876E+08, -3.925291778703496E+06,
2459657.500000000, A.D. 2022-Mar-19 00:00:00.0000, -2.803771611282543E+08, -2.051821997173255E+08, -5.767970936279073E+06,
2459664.500000000, A.D. 2022-Mar-26 00:00:00.0000, -2.746189369051966E+08, -2.153846228193002E+08, -7.603980583115712E+06,
2459671.500000000, A.D. 2022-Apr-02 00:00:00.0000, -2.685473733722180E+08, -2.253412791631611E+08, -9.431317156809121E+06,
2459678.500000000, A.D. 2022-Apr-09 00:00:00.0000, -2.621735809914351E+08, -2.350443145115760E+08, -1.124804215408826E+07,
2459685.500000000, A.D. 2022-Apr-16 00:00:00.0000, -2.555087258175465E+08, -2.444863865722462E+08, -1.305228204361165E+07,
2459692.500000000, A.D. 2022-Apr-23 00:00:00.0000, -2.485640079114732E+08, -2.536606483120449E+08, -1.484222779286627E+07,
2459699.500000000, A.D. 2022-Apr-30 00:00:00.0000, -2.413506439069836E+08, -2.625607315750304E+08, -1.661613404529373E+07,
2459706.500000000, A.D. 2022-May-07 00:00:00.0000, -2.338798505984764E+08, -2.711807330962470E+08, -1.837231841223787E+07,
2459713.500000000, A.D. 2022-May-14 00:00:00.0000, -2.261628280857296E+08, -2.795151999785579E+08, -2.010916077913499E+07,
2459720.500000000, A.D. 2022-May-21 00:00:00.0000, -2.182107444259612E+08, -2.875591139663745E+08, -2.182510239578097E+07,
2459727.500000000, A.D. 2022-May-28 00:00:00.0000, -2.100347221877674E+08, -2.953078755580090E+08, -2.351864480172817E+07,
2459734.500000000, A.D. 2022-Jun-04 00:00:00.0000, -2.016458265455200E+08, -3.027572883453415E+08, -2.518834865356268E+07,
2459741.500000000, A.D. 2022-Jun-11 00:00:00.0000, -1.930550546884092E+08, -3.099035436480474E+08, -2.683283248242703E+07,
2459748.500000000, A.D. 2022-Jun-18 00:00:00.0000, -1.842733264290282E+08, -3.167432054900556E+08, -2.845077139874317E+07,
2459755.500000000, A.D. 2022-Jun-25 00:00:00.0000, -1.753114759088634E+08, -3.232731960018039E+08, -3.004089576273240E+07,
2459762.500000000, A.D. 2022-Jul-02 00:00:00.0000, -1.661802441947108E+08, -3.294907813544239E+08, -3.160198985010365E+07,
2459769.500000000, A.D. 2022-Jul-09 00:00:00.0000, -1.568902723048193E+08, -3.353935580812865E+08, -3.313289054455936E+07,
2459776.500000000, A.D. 2022-Jul-16 00:00:00.0000, -1.474520946506657E+08, -3.409794387297413E+08, -3.463248597256890E+07,
2459783.500000000, A.D. 2022-Jul-23 00:00:00.0000, -1.378761350251047E+08, -3.462466367846143E+08, -3.609971388016076E+07,
2459790.500000000, A.D. 2022-Jul-30 00:00:00.0000, -1.281727049868838E+08, -3.511936542326773E+08, -3.753356004046129E+07,
2459797.500000000, A.D. 2022-Aug-06 00:00:00.0000, -1.183520009809637E+08, -3.558192711339248E+08, -3.893305697560003E+07,
2459804.500000000, A.D. 2022-Aug-13 00:00:00.0000, -1.084241009608333E+08, -3.601225344555287E+08, -4.029728269802363E+07,
2459811.500000000, A.D. 2022-Aug-20 00:00:00.0000, -9.839896202823950E+07, -3.641027466769966E+08, -4.162535937305766E+07,
2459818.500000000, A.D. 2022-Aug-27 00:00:00.0000, -8.828641897093444E+07, -3.677594548943237E+08, -4.291645197222023E+07,
2459825.500000000, A.D. 2022-Sep-03 00:00:00.0000, -7.809618340178607E+07, -3.710924405318942E+08, -4.416976695234363E+07,
2459832.500000000, A.D. 2022-Sep-10 00:00:00.0000, -6.783784336259408E+07, -3.741017096346430E+08, -4.538455096975040E+07,
2459839.500000000, A.D. 2022-Sep-17 00:00:00.0000, -5.752086331942703E+07, -3.767874837382432E+08, -4.656008963516368E+07,
2459846.500000000, A.D. 2022-Sep-24 00:00:00.0000, -4.715458444899491E+07, -3.791501913636696E+08, -4.769570632168801E+07,
2459853.500000000, A.D. 2022-Oct-01 00:00:00.0000, -3.674822493947760E+07, -3.811904601523198E+08, -4.879076105191807E+07,
2459860.500000000, A.D. 2022-Oct-08 00:00:00.0000, -2.631087986451569E+07, -3.829091091117266E+08, -4.984464946067162E+07,
2459867.500000000, A.D. 2022-Oct-15 00:00:00.0000, -1.585152153044014E+07, -3.843071397630621E+08, -5.085680165127979E+07,
2459874.500000000, A.D. 2022-Oct-22 00:00:00.0000, -5.379002448120628E+06, -3.853857278627051E+08, -5.182668088394888E+07,
2459881.500000000, A.D. 2022-Oct-29 00:00:00.0000, 5.097941597775118E+06, -3.861462182800184E+08, -5.275378253832296E+07,
2459888.500000000, A.D. 2022-Nov-05 00:00:00.0000, 1.557069050847303E+07, -3.865901202814305E+08, -5.363763332018974E+07,
2459895.500000000, A.D. 2022-Nov-12 00:00:00.0000, 2.603073891872505E+07, -3.867191019450576E+08, -5.447779042972833E+07,
2459902.500000000, A.D. 2022-Nov-19 00:00:00.0000, 3.646969463436530E+07, -3.865349846502613E+08, -5.527384070405148E+07,
2459909.500000000, A.D. 2022-Nov-26 00:00:00.0000, 4.687927674093545E+07, -3.860397380288201E+08, -5.602539979086566E+07,
2459916.500000000, A.D. 2022-Dec-03 00:00:00.0000, 5.725131356593294E+07, -3.852354753768372E+08, -5.673211136897075E+07,
2459923.500000000, A.D. 2022-Dec-10 00:00:00.0000, 6.757774055579890E+07, -3.841244494936932E+08, -5.739364641693386E+07,
2459930.500000000, A.D. 2022-Dec-17 00:00:00.0000, 7.785059810930611E+07, -3.827090489569352E+08, -5.800970253266212E+07,
2459937.500000000, A.D. 2022-Dec-24 00:00:00.0000, 8.806202949555697E+07, -3.809917948853135E+08, -5.858000331845416E+07,
2459944.500000000, A.D. 2022-Dec-31 00:00:00.0000, 9.820427923276931E+07, -3.789753380735524E+08, -5.910429785593474E+07,
2459951.500000000, A.D. 2023-Jan-07 00:00:00.0000, 1.082696920661636E+08, -3.766624555310723E+08, -5.958236020457079E+07,
2459958.500000000, A.D. 2023-Jan-14 00:00:00.0000, 1.182507105896295E+08, -3.740560459223088E+08, -6.001398870347542E+07,
2459965.500000000, A.D. 2023-Jan-21 00:00:00.0000, 1.281398708759866E+08, -3.711591270725699E+08, -6.039900527642331E+07,
2459972.500000000, A.D. 2023-Jan-28 00:00:00.0000, 1.379297997939366E+08, -3.679748357251357E+08, -6.073725509191525E+07,
2459979.500000000, A.D. 2023-Feb-04 00:00:00.0000, 1.476132138134853E+08, -3.645064265135635E+08, -6.102860631125954E+07,
2459986.500000000, A.D. 2023-Feb-11 00:00:00.0000, 1.571829175142017E+08, -3.607572703345600E+08, -6.127294977521138E+07,
2459993.500000000, A.D. 2023-Feb-18 00:00:00.0000, 1.666318017424057E+08, -3.567308529359627E+08, -6.147019868995963E+07,
2460000.500000000, A.D. 2023-Feb-25 00:00:00.0000, 1.759528416893030E+08, -3.524307738733466E+08, -6.162028834916948E+07,
2460007.500000000, A.D. 2023-Mar-04 00:00:00.0000, 1.851390950010246E+08, -3.478607458086264E+08, -6.172317589933524E+07,
2460014.500000000, A.D. 2023-Mar-11 00:00:00.0000, 1.941836999573887E+08, -3.430245941422335E+08, -6.177884015035190E+07,
2460021.500000000, A.D. 2023-Mar-18 00:00:00.0000, 2.030798737747900E+08, -3.379262570200538E+08, -6.178728143896209E+07,
2460028.500000000, A.D. 2023-Mar-25 00:00:00.0000, 2.118209112459475E+08, -3.325697857547255E+08, -6.174852156713571E+07,
2460035.500000000, A.D. 2023-Apr-01 00:00:00.0000, 2.204001841510257E+08, -3.269593452624818E+08, -6.166260382212879E+07,
2460042.500000000, A.D. 2023-Apr-08 00:00:00.0000, 2.288111408336662E+08, -3.210992132867404E+08, -6.152959292170681E+07,
2460049.500000000, A.D. 2023-Apr-15 00:00:00.0000, 2.370473036119796E+08, -3.149937795096849E+08, -6.134957476020847E+07,
2460056.500000000, A.D. 2023-Apr-22 00:00:00.0000, 2.451022658405091E+08, -3.086475475962520E+08, -6.112265637012097E+07,
2460063.500000000, A.D. 2023-Apr-29 00:00:00.0000, 2.529696913671734E+08, -3.020651379106385E+08, -6.084896616568033E+07,
2460070.500000000, A.D. 2023-May-06 00:00:00.0000, 2.606433146348591E+08, -2.952512891194530E+08, -6.052865416172881E+07,
2460077.500000000, A.D. 2023-May-13 00:00:00.0000, 2.681169404602676E+08, -2.882108595706552E+08, -6.016189215153661E+07,
2460084.500000000, A.D. 2023-May-20 00:00:00.0000, 2.753844437334907E+08, -2.809488289345372E+08, -5.974887390546589E+07,
2460091.500000000, A.D. 2023-May-27 00:00:00.0000, 2.824397692414927E+08, -2.734703001312559E+08, -5.928981541097738E+07,
2460098.500000000, A.D. 2023-Jun-03 00:00:00.0000, 2.892769316830440E+08, -2.657805015141193E+08, -5.878495515754420E+07,
2460105.500000000, A.D. 2023-Jun-10 00:00:00.0000, 2.958900159086820E+08, -2.578847893173886E+08, -5.823455447013600E+07,
2460112.500000000, A.D. 2023-Jun-17 00:00:00.0000, 3.022731774843778E+08, -2.497886504225828E+08, -5.763889790453762E+07,
2460119.500000000, A.D. 2023-Jun-24 00:00:00.0000, 3.084206439099714E+08, -2.414977053802647E+08, -5.699829372951496E+07,
2460126.500000000, A.D. 2023-Jul-01 00:00:00.0000, 3.143267167595816E+08, -2.330177108527999E+08, -5.631307445203696E+07,
2460133.500000000, A.D. 2023-Jul-08 00:00:00.0000, 3.199857730849993E+08, -2.243545606521954E+08, -5.558359716581102E+07,
2460140.500000000, A.D. 2023-Jul-15 00:00:00.0000, 3.253922648178253E+08, -2.155142881981106E+08, -5.481024383776098E+07,
$$EOE